{
  "version": 1,
  "fetchedAt": "2026-06-16T15:59:31.869Z",
  "source": "celestrak-gp",
  "counts": {
    "station": 25,
    "satellite": 400,
    "debris": 111
  },
  "objects": [
    {
      "id": "44231",
      "name": "BEIDOU-2 G8 (C01)",
      "noradId": 44231,
      "line1": "1 44231U 19027A   26167.21444316 -.00000249  00000+0  00000+0 0  9994",
      "line2": "2 44231   1.6549  74.4918 0010211 281.8355 129.9032  1.00271018 26072",
      "category": "satellite"
    },
    {
      "id": "44299",
      "name": "COSMOS 2534 (758)",
      "noradId": 44299,
      "line1": "1 44299U 19030A   26167.15041896  .00000077  00000+0  00000+0 0  9999",
      "line2": "2 44299  64.3685 192.6516 0013389 275.0852 148.6554  2.13102184 54908",
      "category": "satellite"
    },
    {
      "id": "44337",
      "name": "BEIDOU-3 IGSO-2 (C39)",
      "noradId": 44337,
      "line1": "1 44337U 19035A   26165.62361995 -.00000071  00000+0  00000+0 0  9997",
      "line2": "2 44337  55.2456 158.8849 0039904 216.4592 231.8306  1.00267330 25649",
      "category": "satellite"
    },
    {
      "id": "44506",
      "name": "GPS BIII-2  (PRN 18)",
      "noradId": 44506,
      "line1": "1 44506U 19056A   26166.65458477 -.00000082  00000+0  00000+0 0  9996",
      "line2": "2 44506  55.6378 331.2033 0062051 197.6084 163.1664  2.00569414 50046",
      "category": "satellite"
    },
    {
      "id": "44542",
      "name": "BEIDOU-3 M24 (C46)",
      "noradId": 44542,
      "line1": "1 44542U 19061A   26167.16854632  .00000072  00000+0  00000+0 0  9990",
      "line2": "2 44542  54.3962 182.7624 0008294 358.7070   1.3305  1.86229155 45777",
      "category": "satellite"
    },
    {
      "id": "44543",
      "name": "BEIDOU-3 M23 (C45)",
      "noradId": 44543,
      "line1": "1 44543U 19061B   26166.22778992  .00000086  00000+0  00000+0 0  9996",
      "line2": "2 44543  54.3948 182.7623 0005651 338.0000  22.9166  1.86227199 45768",
      "category": "satellite"
    },
    {
      "id": "44624",
      "name": "EUTELSAT 5 WEST B (EGN*)",
      "noradId": 44624,
      "line1": "1 44624U 19067A   26166.68578492 -.00000040  00000+0  00000+0 0  9996",
      "line2": "2 44624   0.0632   3.7418 0002873  78.7733  63.3583  1.00272136 24423",
      "category": "satellite"
    },
    {
      "id": "44793",
      "name": "BEIDOU-3 M22 (C44)",
      "noradId": 44793,
      "line1": "1 44793U 19078A   26166.47137539 -.00000068  00000+0  00000+0 0  9995",
      "line2": "2 44793  53.9376 299.8887 0006440  50.5495 309.4939  1.86227266 44617",
      "category": "satellite"
    },
    {
      "id": "44794",
      "name": "BEIDOU-3 M21 (C43)",
      "noradId": 44794,
      "line1": "1 44794U 19078B   26164.46345251 -.00000068  00000+0  00000+0 0  9995",
      "line2": "2 44794  53.9128 299.9208 0004278  48.5109 311.5090  1.86227756 44589",
      "category": "satellite"
    },
    {
      "id": "44850",
      "name": "COSMOS 2544 (759)",
      "noradId": 44850,
      "line1": "1 44850U 19088A   26167.09085396 -.00000021  00000+0  00000+0 0  9991",
      "line2": "2 44850  65.5649  73.7677 0013146 258.6682 101.2153  2.13102635 50693",
      "category": "satellite"
    },
    {
      "id": "44864",
      "name": "BEIDOU-3 M19 (C41)",
      "noradId": 44864,
      "line1": "1 44864U 19090A   26165.52330763 -.00000053  00000+0  00000+0 0  9991",
      "line2": "2 44864  56.5562  62.8792 0017922 297.9457 249.9520  1.86231333 44183",
      "category": "satellite"
    },
    {
      "id": "44865",
      "name": "BEIDOU-3 M20 (C42)",
      "noradId": 44865,
      "line1": "1 44865U 19090B   26166.44845134 -.00000051  00000+0  00000+0 0  9995",
      "line2": "2 44865  56.5591  62.8831 0015700 311.8905 225.8558  1.86231059 44185",
      "category": "satellite"
    },
    {
      "id": "45344",
      "name": "BEIDOU-3 G2 (C60)",
      "noradId": 45344,
      "line1": "1 45344U 20017A   26167.05914363 -.00000142  00000+0  00000+0 0  9999",
      "line2": "2 45344   2.8614  47.3166 0002018  32.3100 286.0776  1.00272071 23247",
      "category": "satellite"
    },
    {
      "id": "45358",
      "name": "COSMOS 2545 (760)",
      "noradId": 45358,
      "line1": "1 45358U 20018A   26167.28584186 -.00000055  00000+0  00000+0 0  9999",
      "line2": "2 45358  64.3556 312.4510 0008396 230.0424 129.8687  2.13102431 48643",
      "category": "satellite"
    },
    {
      "id": "45807",
      "name": "BEIDOU-3 G3 (C61)",
      "noradId": 45807,
      "line1": "1 45807U 20040A   26167.06512367 -.00000355  00000+0  00000+0 0  9994",
      "line2": "2 45807   2.4438  67.4376 0002378 335.0646 355.7999  1.00267007 22056",
      "category": "satellite"
    },
    {
      "id": "45854",
      "name": "GPS BIII-3  (PRN 23)",
      "noradId": 45854,
      "line1": "1 45854U 20041A   26162.56161249 -.00000063  00000+0  00000+0 0  9992",
      "line2": "2 45854  56.6657  29.1622 0063604 204.6361  19.3768  2.00558626 43922",
      "category": "satellite"
    },
    {
      "id": "46114",
      "name": "GALAXY 30 (WAAS/PRN 135)",
      "noradId": 46114,
      "line1": "1 46114U 20056C   26167.32079141  .00000036  00000+0  00000+0 0  9995",
      "line2": "2 46114   0.0162  21.3703 0002091  64.2104 169.4899  1.00271030 21285",
      "category": "satellite"
    },
    {
      "id": "46805",
      "name": "COSMOS 2547 (705K)",
      "noradId": 46805,
      "line1": "1 46805U 20075A   26163.72129992  .00000119  00000+0  00000+0 0  9995",
      "line2": "2 46805  64.5993 192.6246 0009245 239.6069 120.3788  2.13100258 43813",
      "category": "satellite"
    },
    {
      "id": "46826",
      "name": "GPS BIII-4  (PRN 14)",
      "noradId": 46826,
      "line1": "1 46826U 20078A   26167.31197234  .00000056  00000+0  00000+0 0  9994",
      "line2": "2 46826  53.9798 210.8141 0073484 207.1928 183.0171  2.00564783 41495",
      "category": "satellite"
    },
    {
      "id": "48859",
      "name": "GPS BIII-5  (PRN 11)",
      "noradId": 48859,
      "line1": "1 48859U 21054A   26165.49119520 -.00000079  00000+0  00000+0 0  9992",
      "line2": "2 48859  55.1759 332.5679 0025337 228.5758 113.1489  2.00568903 36694",
      "category": "satellite"
    },
    {
      "id": "49336",
      "name": "QZS-1R (QZSS/PRN 196)",
      "noradId": 49336,
      "line1": "1 49336U 21096A   26166.63725311 -.00000280  00000+0  00000+0 0  9991",
      "line2": "2 49336  37.4590  79.6067 0754763 271.7705 276.0514  1.00255740 16995",
      "category": "satellite"
    },
    {
      "id": "49809",
      "name": "GSAT0223 (GALILEO 27)",
      "noradId": 49809,
      "line1": "1 49809U 21116A   26162.13215269 -.00000065  00000+0  00000+0 0  9997",
      "line2": "2 49809  57.1623 341.8389 0001404 187.4451 176.2704  1.70475860 28084",
      "category": "satellite"
    },
    {
      "id": "49810",
      "name": "GSAT0224 (GALILEO 28)",
      "noradId": 49810,
      "line1": "1 49810U 21116B   26166.62800549 -.00000083  00000+0  00000+0 0  9998",
      "line2": "2 49810  57.1620 341.7155 0001119 160.0278 195.5159  1.70475771 28179",
      "category": "satellite"
    },
    {
      "id": "52984",
      "name": "COSMOS 2557 (706K)",
      "noradId": 52984,
      "line1": "1 52984U 22075A   26163.88559135 -.00000051  00000+0  00000+0 0  9991",
      "line2": "2 52984  64.3011 314.6375 0010222 275.3123  84.5589  2.13102288 30621",
      "category": "satellite"
    },
    {
      "id": "54031",
      "name": "COSMOS 2559 (707K)",
      "noradId": 54031,
      "line1": "1 54031U 22130A   26166.52077722 -.00000056  00000+0  00000+0 0  9994",
      "line2": "2 54031  64.2722 314.6272 0012575 178.0209 181.9686  2.13101538 28654",
      "category": "satellite"
    },
    {
      "id": "54377",
      "name": "COSMOS 2564 (761)",
      "noradId": 54377,
      "line1": "1 54377U 22161A   26165.42556716  .00000103  00000+0  00000+0 0  9996",
      "line2": "2 54377  64.7414 192.8035 0012164 224.6167 135.3579  2.13101987 27570",
      "category": "satellite"
    },
    {
      "id": "55268",
      "name": "GPS BIII-6  (PRN 28)",
      "noradId": 55268,
      "line1": "1 55268U 23009A   26163.12704838  .00000093  00000+0  00000+0 0  9991",
      "line2": "2 55268  55.1221 148.7180 0006256 318.1997 154.6775  2.00571745 25148",
      "category": "satellite"
    },
    {
      "id": "56564",
      "name": "BEIDOU-3 G4 (C62)",
      "noradId": 56564,
      "line1": "1 56564U 23066A   26167.25023300 -.00000281  00000+0  00000+0 0  9990",
      "line2": "2 56564   0.4878 331.2352 0004306 181.6751 341.7169  1.00273942 11388",
      "category": "satellite"
    },
    {
      "id": "56759",
      "name": "NVS-01 (IRNSS-1J)",
      "noradId": 56759,
      "line1": "1 56759U 23076A   26167.21149648 -.00000335  00000+0  00000+0 0  9997",
      "line2": "2 56759   2.1680 244.3901 0003203  36.3450 189.3586  1.00265103 11104",
      "category": "satellite"
    },
    {
      "id": "57517",
      "name": "COSMOS 2569 (703K)",
      "noradId": 57517,
      "line1": "1 57517U 23114A   26166.37639921 -.00000024  00000+0  00000+0 0  9992",
      "line2": "2 57517  65.3011  72.6815 0010734 296.8932  63.0268  2.13103652 22222",
      "category": "satellite"
    },
    {
      "id": "58654",
      "name": "BEIDOU-3 M28 (C50)",
      "noradId": 58654,
      "line1": "1 58654U 23207A   26164.00359830 -.00000057  00000+0  00000+0 0  9990",
      "line2": "2 58654  55.7492  62.4443 0003374 346.0621  13.9544  1.86229633 16760",
      "category": "satellite"
    }
  ]
}