OBJECT_NAME,OBJECT_ID,EPOCH,MEAN_MOTION,ECCENTRICITY,INCLINATION,RA_OF_ASC_NODE,ARG_OF_PERICENTER,MEAN_ANOMALY,EPHEMERIS_TYPE,CLASSIFICATION_TYPE,NORAD_CAT_ID,ELEMENT_SET_NO,REV_AT_EPOCH,BSTAR,MEAN_MOTION_DOT,MEAN_MOTION_DDOT
BEIDOU-2 G8 (C01),2019-027A,2026-06-16T05:08:47.889024,1.00271018,.0010211,1.6549,74.4918,281.8355,129.9032,0,U,44231,999,2607,0,-.249E-5,0
COSMOS 2534 (758),2019-030A,2026-06-16T03:36:36.198144,2.13102184,.00133893,64.3685,192.6516,275.0852,148.6554,0,U,44299,999,5490,0,.77E-6,0
BEIDOU-3 IGSO-2 (C39),2019-035A,2026-06-14T14:58:00.763680,1.00267330,.0039904,55.2456,158.8849,216.4592,231.8306,0,U,44337,999,2564,0,-.71E-6,0
GPS BIII-2  (PRN 18),2019-056A,2026-06-15T15:42:36.124128,2.00569414,.00620512,55.6378,331.2033,197.6084,163.1664,0,U,44506,999,5004,0,-.82E-6,0
BEIDOU-3 M24 (C46),2019-061A,2026-06-16T04:02:42.402048,1.86229155,.00082945,54.3962,182.7624,358.7070,1.3305,0,U,44542,999,4577,0,.72E-6,0
BEIDOU-3 M23 (C45),2019-061B,2026-06-15T05:28:01.049088,1.86227199,.0005651,54.3948,182.7623,338.0000,22.9166,0,U,44543,999,4576,0,.86E-6,0
EUTELSAT 5 WEST B (EGNOS/PRN 121),2019-067A,2026-06-15T16:27:31.817088,1.00272136,.00028732,0.0632,3.7418,78.7733,63.3583,0,U,44624,999,2442,0,-.4E-6,0
BEIDOU-3 M22 (C44),2019-078A,2026-06-15T11:18:46.833696,1.86227266,.00064408,53.9376,299.8887,50.5495,309.4939,0,U,44793,999,4461,0,-.68E-6,0
BEIDOU-3 M21 (C43),2019-078B,2026-06-13T11:07:22.296864,1.86227756,.00042788,53.9128,299.9208,48.5109,311.5090,0,U,44794,999,4458,0,-.68E-6,0
COSMOS 2544 (759),2019-088A,2026-06-16T02:10:49.782144,2.13102635,.00131469,65.5649,73.7677,258.6682,101.2153,0,U,44850,999,5069,0,-.21E-6,0
BEIDOU-3 M19 (C41),2019-090A,2026-06-14T12:33:33.779232,1.86231333,.00179222,56.5562,62.8792,297.9457,249.9520,0,U,44864,999,4418,0,-.53E-6,0
BEIDOU-3 M20 (C42),2019-090B,2026-06-15T10:45:46.195776,1.86231059,.00157003,56.5591,62.8831,311.8905,225.8558,0,U,44865,999,4418,0,-.51E-6,0
BEIDOU-3 G2 (C60),2020-017A,2026-06-16T01:25:10.009632,1.00272071,.00020185,2.8614,47.3166,32.3100,286.0776,0,U,45344,999,2324,0,-.142E-5,0
COSMOS 2545 (760),2020-018A,2026-06-16T06:51:36.736704,2.13102431,.00083965,64.3556,312.4510,230.0424,129.8687,0,U,45358,999,4864,0,-.55E-6,0
BEIDOU-3 G3 (C61),2020-040A,2026-06-16T01:33:46.685088,1.00267007,.00023787,2.4438,67.4376,335.0646,355.7999,0,U,45807,999,2205,0,-.355E-5,0
GPS BIII-3  (PRN 23),2020-041A,2026-06-11T13:28:43.319136,2.00558626,.0063604,56.6657,29.1622,204.6361,19.3768,0,U,45854,999,4392,0,-.63E-6,0
GALAXY 30 (WAAS/PRN 135),2020-056C,2026-06-16T07:41:56.377824,1.00271030,.00020912,0.0162,21.3703,64.2104,169.4899,0,U,46114,999,2128,0,.36E-6,0
COSMOS 2547 (705K),2020-075A,2026-06-12T17:18:40.313088,2.13100258,.00092459,64.5993,192.6246,239.6069,120.3788,0,U,46805,999,4381,0,.119E-5,0
GPS BIII-4  (PRN 14),2020-078A,2026-06-16T07:29:14.410176,2.00564783,.00734842,53.9798,210.8141,207.1928,183.0171,0,U,46826,999,4149,0,.56E-6,0
GPS BIII-5  (PRN 11),2021-054A,2026-06-14T11:47:19.265280,2.00568903,.0025337,55.1759,332.5679,228.5758,113.1489,0,U,48859,999,3669,0,-.79E-6,0
QZS-1R (QZSS/PRN 196),2021-096A,2026-06-15T15:17:38.668704,1.00255740,.07547637,37.4590,79.6067,271.7705,276.0514,0,U,49336,999,1699,0,-.28E-5,0
GSAT0223 (GALILEO 27),2021-116A,2026-06-11T03:10:17.992416,1.70475860,.00014044,57.1623,341.8389,187.4451,176.2704,0,U,49809,999,2808,0,-.65E-6,0
GSAT0224 (GALILEO 28),2021-116B,2026-06-15T15:04:19.674336,1.70475771,.0001119,57.1620,341.7155,160.0278,195.5159,0,U,49810,999,2817,0,-.83E-6,0
COSMOS 2557 (706K),2022-075A,2026-06-12T21:15:15.092640,2.13102288,.00102223,64.3011,314.6375,275.3123,84.5589,0,U,52984,999,3062,0,-.51E-6,0
COSMOS 2559 (707K),2022-130A,2026-06-15T12:29:55.151808,2.13101538,.0012575,64.2722,314.6272,178.0209,181.9686,0,U,54031,999,2865,0,-.56E-6,0
COSMOS 2564 (761),2022-161A,2026-06-14T10:12:49.002624,2.13101987,.00121644,64.7414,192.8035,224.6167,135.3579,0,U,54377,999,2757,0,.103E-5,0
GPS BIII-6  (PRN 28),2023-009A,2026-06-12T03:02:56.980032,2.00571745,.0006256,55.1221,148.7180,318.1997,154.6775,0,U,55268,999,2514,0,.93E-6,0
BEIDOU-3 G4 (C62),2023-066A,2026-06-16T06:00:20.131200,1.00273942,.00043061,0.4878,331.2352,181.6751,341.7169,0,U,56564,999,1138,0,-.281E-5,0
NVS-01 (IRNSS-1J),2023-076A,2026-06-16T05:04:33.295872,1.00265103,.00032033,2.1680,244.3901,36.3450,189.3586,0,U,56759,999,1110,0,-.335E-5,0
COSMOS 2569 (703K),2023-114A,2026-06-15T09:02:00.891744,2.13103652,.00107345,65.3011,72.6815,296.8932,63.0268,0,U,57517,999,2222,0,-.24E-6,0
BEIDOU-3 M28 (C50),2023-207A,2026-06-13T00:05:10.893120,1.86229633,.0003374,55.7492,62.4443,346.0621,13.9544,0,U,58654,999,1676,0,-.57E-6,0
